{
  "type": "FeatureCollection",
  "features": [
    {
      "type": "Feature",
      "properties": {
        "norad_id": 22490,
        "name": "SCD 1",
        "group": "resource",
        "lat": -5.658342347055625,
        "lon": -149.46073190823543,
        "alt_km": 729.1838620849194,
        "timestamp": "2025-12-21T18:54:58.149681+00:00",
        "meta_object_name": "SCD 1",
        "meta_object_id": "1993-009B",
        "meta_epoch": "2025-12-20T20:00:20.608704",
        "meta_mean_motion": 14.46004096,
        "meta_eccentricity": 0.0042122,
        "meta_inclination": 24.9682,
        "meta_ra_of_asc_node": 228.7229,
        "meta_arg_of_pericenter": 50.6528,
        "meta_mean_anomaly": 356.9599,
        "meta_ephemeris_type": 0,
        "meta_classification_type": "U",
        "meta_norad_cat_id": 22490,
        "meta_element_set_no": 999,
        "meta_rev_at_epoch": 73527,
        "meta_bstar": 6.2642e-05,
        "meta_mean_motion_dot": 4.14e-06,
        "meta_mean_motion_ddot": 0,
        "tle_line1": "1 22490U 93009B   25354.83357186  .00000414  00000+0  62642-4 0  9990",
        "tle_line2": "2 22490  24.9682 228.7229 0042122  50.6528 356.9599 14.46004096735273"
      },
      "geometry": {
        "type": "Point",
        "coordinates": [
          -149.46073190823543,
          -5.658342347055625
        ]
      }
    },
    {
      "type": "Feature",
      "properties": {
        "norad_id": 25397,
        "name": "TECHSAT 1B (GO-32)",
        "group": "resource",
        "lat": 75.57660108537671,
        "lon": -162.78612053611278,
        "alt_km": 802.7131721933292,
        "timestamp": "2025-12-21T18:54:58.149708+00:00",
        "meta_object_name": "TECHSAT 1B (GO-32)",
        "meta_object_id": "1998-043D",
        "meta_epoch": "2025-12-21T11:41:56.072256",
        "meta_mean_motion": 14.24379327,
        "meta_eccentricity": 0.00017805,
        "meta_inclination": 98.9929,
        "meta_ra_of_asc_node": 338.9018,
        "meta_arg_of_pericenter": 43.3962,
        "meta_mean_anomaly": 316.7356,
        "meta_ephemeris_type": 0,
        "meta_classification_type": "U",
        "meta_norad_cat_id": 25397,
        "meta_element_set_no": 999,
        "meta_rev_at_epoch": 42603,
        "meta_bstar": 4.1311288e-05,
        "meta_mean_motion_dot": 4.9e-07,
        "meta_mean_motion_ddot": 0,
        "tle_line1": "1 25397U 98043D   25355.48745454  .00000049  00000+0  41311-4 0  9997",
        "tle_line2": "2 25397  98.9929 338.9018 0001780  43.3962 316.7356 14.24379327426037"
      },
      "geometry": {
        "type": "Point",
        "coordinates": [
          -162.78612053611278,
          75.57660108537671
        ]
      }
    },
    {
      "type": "Feature",
      "properties": {
        "norad_id": 25504,
        "name": "SCD 2",
        "group": "resource",
        "lat": -0.01967861577993143,
        "lon": 86.06020986428545,
        "alt_km": 730.7118966169646,
        "timestamp": "2025-12-21T18:54:58.149724+00:00",
        "meta_object_name": "SCD 2",
        "meta_object_id": "1998-060A",
        "meta_epoch": "2025-12-21T14:03:05.507424",
        "meta_mean_motion": 14.45427795,
        "meta_eccentricity": 0.0017009,
        "meta_inclination": 24.9948,
        "meta_ra_of_asc_node": 87.3516,
        "meta_arg_of_pericenter": 47.008,
        "meta_mean_anomaly": 336.2832,
        "meta_ephemeris_type": 0,
        "meta_classification_type": "U",
        "meta_norad_cat_id": 25504,
        "meta_element_set_no": 999,
        "meta_rev_at_epoch": 43460,
        "meta_bstar": 5.5779818e-05,
        "meta_mean_motion_dot": 3.81e-06,
        "meta_mean_motion_ddot": 0,
        "tle_line1": "1 25504U 98060A   25355.58548041  .00000381  00000+0  55780-4 0  9994",
        "tle_line2": "2 25504  24.9948  87.3516 0017009  47.0080 336.2832 14.45427795434602"
      },
      "geometry": {
        "type": "Point",
        "coordinates": [
          86.06020986428545,
          -0.01967861577993143
        ]
      }
    },
    {
      "type": "Feature",
      "properties": {
        "norad_id": 25757,
        "name": "DLR-TUBSAT",
        "group": "resource",
        "lat": 29.990713120637515,
        "lon": 165.62537281540543,
        "alt_km": 706.6831730686326,
        "timestamp": "2025-12-21T18:54:58.149737+00:00",
        "meta_object_name": "DLR-TUBSAT",
        "meta_object_id": "1999-029B",
        "meta_epoch": "2025-12-17T13:22:10.787520",
        "meta_mean_motion": 14.52359578,
        "meta_eccentricity": 0.00141996,
        "meta_inclination": 98.6566,
        "meta_ra_of_asc_node": 336.2196,
        "meta_arg_of_pericenter": 177.8976,
        "meta_mean_anomaly": 182.2281,
        "meta_ephemeris_type": 0,
        "meta_classification_type": "U",
        "meta_norad_cat_id": 25757,
        "meta_element_set_no": 999,
        "meta_rev_at_epoch": 40688,
        "meta_bstar": 3.7650132e-05,
        "meta_mean_motion_dot": 1.05e-06,
        "meta_mean_motion_ddot": 0,
        "tle_line1": "1 25757U 99029B   25351.55706930  .00000105  00000+0  37650-4 0  9996",
        "tle_line2": "2 25757  98.6566 336.2196 0014199 177.8976 182.2281 14.52359578406886"
      },
      "geometry": {
        "type": "Point",
        "coordinates": [
          165.62537281540543,
          29.990713120637515
        ]
      }
    },
    {
      "type": "Feature",
      "properties": {
        "norad_id": 25994,
        "name": "TERRA",
        "group": "resource",
        "lat": 48.9539546315767,
        "lon": -123.59633895661459,
        "alt_km": 684.3589304365369,
        "timestamp": "2025-12-21T18:54:58.149748+00:00",
        "meta_object_name": "TERRA",
        "meta_object_id": "1999-068A",
        "meta_epoch": "2025-12-21T14:09:33.535872",
        "meta_mean_motion": 14.60911086,
        "meta_eccentricity": 0.0003512,
        "meta_inclination": 97.9735,
        "meta_ra_of_asc_node": 46.9492,
        "meta_arg_of_pericenter": 76.8406,
        "meta_mean_anomaly": 91.6789,
        "meta_ephemeris_type": 0,
        "meta_classification_type": "U",
        "meta_norad_cat_id": 25994,
        "meta_element_set_no": 999,
        "meta_rev_at_epoch": 38367,
        "meta_bstar": 8.7571338e-05,
        "meta_mean_motion_dot": 3.84e-06,
        "meta_mean_motion_ddot": 0,
        "tle_line1": "1 25994U 99068A   25355.58997148  .00000384  00000+0  87571-4 0  9998",
        "tle_line2": "2 25994  97.9735  46.9492 0003512  76.8406  91.6789 14.60911086383670"
      },
      "geometry": {
        "type": "Point",
        "coordinates": [
          -123.59633895661459,
          48.9539546315767
        ]
      }
    },
    {
      "type": "Feature",
      "properties": {
        "norad_id": 27004,
        "name": "MAROC-TUBSAT",
        "group": "resource",
        "lat": 50.23854964140913,
        "lon": 152.4129629891355,
        "alt_km": 1008.0721647087876,
        "timestamp": "2025-12-21T18:54:58.149760+00:00",
        "meta_object_name": "MAROC-TUBSAT",
        "meta_object_id": "2001-056D",
        "meta_epoch": "2025-12-21T10:02:43.183968",
        "meta_mean_motion": 13.70253322,
        "meta_eccentricity": 0.00191951,
        "meta_inclination": 99.7916,
        "meta_ra_of_asc_node": 164.0156,
        "meta_arg_of_pericenter": 237.1012,
        "meta_mean_anomaly": 151.8705,
        "meta_ephemeris_type": 0,
        "meta_classification_type": "U",
        "meta_norad_cat_id": 27004,
        "meta_element_set_no": 999,
        "meta_rev_at_epoch": 20184,
        "meta_bstar": 1.912015e-05,
        "meta_mean_motion_dot": -3e-07,
        "meta_mean_motion_ddot": 0,
        "tle_line1": "1 27004U 01056D   25355.41855537 -.00000030  00000+0  19120-4 0  9993",
        "tle_line2": "2 27004  99.7916 164.0156 0019195 237.1012 151.8705 13.70253322201840"
      },
      "geometry": {
        "type": "Point",
        "coordinates": [
          152.4129629891355,
          50.23854964140913
        ]
      }
    },
    {
      "type": "Feature",
      "properties": {
        "norad_id": 27424,
        "name": "AQUA",
        "group": "resource",
        "lat": 34.81262053316028,
        "lon": -49.08613699869781,
        "alt_km": 684.6971226812284,
        "timestamp": "2025-12-21T18:54:58.149772+00:00",
        "meta_object_name": "AQUA",
        "meta_object_id": "2002-022A",
        "meta_epoch": "2025-12-20T21:44:41.124192",
        "meta_mean_motion": 14.61819722,
        "meta_eccentricity": 0.0001418,
        "meta_inclination": 98.4047,
        "meta_ra_of_asc_node": 315.9181,
        "meta_arg_of_pericenter": 110.6839,
        "meta_mean_anomaly": 325.0971,
        "meta_ephemeris_type": 0,
        "meta_classification_type": "U",
        "meta_norad_cat_id": 27424,
        "meta_element_set_no": 999,
        "meta_rev_at_epoch": 25722,
        "meta_bstar": 0.00013306,
        "meta_mean_motion_dot": 6.15e-06,
        "meta_mean_motion_ddot": 0,
        "tle_line1": "1 27424U 02022A   25354.90603153  .00000615  00000+0  13306-3 0  9998",
        "tle_line2": "2 27424  98.4047 315.9181 0001418 110.6839 325.0971 14.61819722257229"
      },
      "geometry": {
        "type": "Point",
        "coordinates": [
          -49.08613699869781,
          34.81262053316028
        ]
      }
    }
  ]
}